{
    "links": {
        "self": "http://www.neowsapp.com/rest/v1/neo/3748563?api_key=iIulBulltgU6a56xZRHN4H3l9WmuAYTsLGpBGhQ2"
    },
    "id": "3748563",
    "neo_reference_id": "3748563",
    "name": "(2016 GF1)",
    "designation": "2016 GF1",
    "nasa_jpl_url": "http://ssd.jpl.nasa.gov/sbdb.cgi?sstr=3748563",
    "absolute_magnitude_h": 26.1,
    "estimated_diameter": {
        "kilometers": {
            "estimated_diameter_min": 0.0160160338,
            "estimated_diameter_max": 0.0358129403
        },
        "meters": {
            "estimated_diameter_min": 16.0160337979,
            "estimated_diameter_max": 35.8129403019
        },
        "miles": {
            "estimated_diameter_min": 0.0099518989,
            "estimated_diameter_max": 0.0222531225
        },
        "feet": {
            "estimated_diameter_min": 52.5460443254,
            "estimated_diameter_max": 117.4965270602
        }
    },
    "is_potentially_hazardous_asteroid": false,
    "close_approach_data": [
        {
            "close_approach_date": "1907-01-04",
            "close_approach_date_full": "1907-Jan-04 09:00",
            "epoch_date_close_approach": -1987858800000,
            "relative_velocity": {
                "kilometers_per_second": "16.2623914951",
                "kilometers_per_hour": "58544.6093823402",
                "miles_per_hour": "36377.3435353769"
            },
            "miss_distance": {
                "astronomical": "0.282210905",
                "lunar": "109.780042045",
                "kilometers": "42218150.27877235",
                "miles": "26233142.13626443"
            },
            "orbiting_body": "Earth"
        },
        {
            "close_approach_date": "2016-03-24",
            "close_approach_date_full": "2016-Mar-24 12:55",
            "epoch_date_close_approach": 1458824100000,
            "relative_velocity": {
                "kilometers_per_second": "8.1837433828",
                "kilometers_per_hour": "29461.4761781817",
                "miles_per_hour": "18306.2155730485"
            },
            "miss_distance": {
                "astronomical": "0.0288389157",
                "lunar": "11.2183382073",
                "kilometers": "4314240.361829559",
                "miles": "2680744.6530595542"
            },
            "orbiting_body": "Earth"
        }
    ],
    "orbital_data": {
        "orbit_id": "9",
        "orbit_determination_date": "2017-12-27 06:26:31",
        "first_observation_date": "2016-04-02",
        "last_observation_date": "2016-04-16",
        "data_arc_in_days": 14,
        "observations_used": 62,
        "orbit_uncertainty": "7",
        "minimum_orbit_intersection": ".00326734",
        "jupiter_tisserand_invariant": "3.682",
        "epoch_osculation": "2459000.5",
        "eccentricity": ".5081132407980882",
        "semi_major_axis": "1.988213312308434",
        "inclination": ".255185483106379",
        "ascending_node_longitude": "273.6808844192282",
        "orbital_period": "1023.983344866907",
        "perihelion_distance": ".9779758027934944",
        "perihelion_argument": "241.8675400383812",
        "aphelion_distance": "2.998450821823374",
        "perihelion_time": "2459498.211504487987",
        "mean_anomaly": "185.0204531998871",
        "mean_motion": ".351568218179165",
        "equinox": "J2000",
        "orbit_class": {
            "orbit_class_type": "APO",
            "orbit_class_description": "Near-Earth asteroid orbits which cross the Earth’s orbit similar to that of 1862 Apollo",
            "orbit_class_range": "a (semi-major axis) > 1.0 AU; q (perihelion) < 1.017 AU"
        }
    },
    "is_sentry_object": false
}